STARLINK-36570          
1 67640U 26020Z   26046.91668981  .00174127  00000+0  10555-2 0  9998
2 67640  42.9977 274.2713 0001752 272.6494  39.4024 15.76257334  3893
STARLINK-36514          
1 67641U 26020AA  26046.65744541  .00427248  00000+0  19204-2 0  9992
2 67641  42.9962 275.6412 0002100 224.9492 135.1210 15.82156606  2612
STARLINK-36556          
1 67642U 26020AB  26045.89986705  .00445320  00000+0  20883-2 0  9994
2 67642  42.9973 280.2837 0000965 131.0329 229.0626 15.81195695  2492
STARLINK-36533          
1 67643U 26020AC  26046.67388236  .00143846  00000+0  86776-3 0  9999
2 67643  42.9973 275.7747 0001705 260.4529  99.6148 15.76461582  2613
STARLINK-36623          
1 67644U 26020AD  26046.91668981  .00061574  00000+0  37917-3 0  9995
2 67644  42.9978 274.2072 0001738 265.5755  71.3237 15.76318030  3893
STARLINK-36619          
1 67645U 26020AE  26046.91668981  .00146366  00000+0  89138-3 0  9991
2 67645  42.9979 274.1764 0001804 265.7904  83.6055 15.76238084  3898
ALSAT-3B                
1 67646U 26021A   26046.97476100  .00007380  00000+0  31057-3 0  9998
2 67646  97.4716 121.4052 0012083 205.8699 154.1935 15.23612337  2411
CZ-2C R/B               
1 67647U 26021B   26046.91213329  .00014336  00000+0  43249-3 0  9990
2 67647  97.6556 121.9425 0153592  86.9231 274.9567 15.23488351  2381
STARLINK-36719          
1 67648U 26022A   26046.91668981  .00062844  00000+0  41998-3 0  9996
2 67648  97.2839  79.8085 0001476  75.7787 173.5807 15.75141554  3391
STARLINK-36342          
1 67649U 26022B   26046.91668981  .00053731  00000+0  35954-3 0  9997
2 67649  97.2839  79.8095 0001104  86.0198 167.3384 15.75145681  3398
STARLINK-36703          
1 67650U 26022C   26046.91668981  .00099753  00000+0  66362-3 0  9990
2 67650  97.2839  79.8124 0001674  87.7116 171.6481 15.75128470  3396
STARLINK-36696          
1 67651U 26022D   26046.91668981  .00082465  00000+0  54992-3 0  9999
2 67651  97.2835  79.8166 0001836  86.2579 183.1107 15.75126164  3397
